NORAD_CAT_ID,OBJECT_NAME,OBJECT_TYPE,EPOCH,MEAN_MOTION,ECCENTRICITY,INCLINATION,RA_OF_ASC_NODE,ARG_OF_PERICENTER,MEAN_ANOMALY,BSTAR,MEAN_MOTION_DOT,MEAN_MOTION_DDOT,TLE_LINE0,TLE_LINE1,TLE_LINE2,SEMIMAJOR_AXIS,PERIOD,APOGEE,PERIGEE,DECAYED
54183.0,STARLINK-5239,PAYLOAD,2024-06-15 04:01:11,15.08846451,0.0001348,53.2174,323.2426,85.7745,274.3401,0.00033526,5.053e-05,0.0,0 STARLINK-5239,1 54183U 22141AC  24167.16749840  .00005053  00000-0  33526-3 0  9995,2 54183  53.2174 323.2426 0001348  85.7745 274.3401 15.08846451 90371,6917.861,95.437,540.658,538.793,0.0
54183.0,STARLINK-5239,PAYLOAD,2024-06-15 16:44:16,15.08853353,0.0001314,53.2177,320.8629,88.1017,272.0125,0.00037002,5.608e-05,0.0,0 STARLINK-5239,1 54183U 22141AC  24167.69741473  .00005608  00000-0  37002-3 0  9996,2 54183  53.2177 320.8629 0001314  88.1017 272.0125 15.08853353 90450,6917.84,95.437,540.614,538.796,0.0
54183.0,STARLINK-5239,PAYLOAD,2024-06-16 13:24:17,15.08844459,0.0001332,53.2167,316.9983,82.1742,277.9402,8.2306e-05,1.022e-05,0.0,0 STARLINK-5239,1 54183U 22141AC  24168.55853542  .00001022  00000-0  82306-4 0  9997,2 54183  53.2167 316.9983 0001332  82.1742 277.9402 15.08844459 90580,6917.867,95.437,540.653,538.81,0.0
54183.0,STARLINK-5239,PAYLOAD,2024-06-16 16:35:03,15.08846943,0.0001345,53.2176,316.401,90.9271,269.1875,0.00019193,2.769e-05,0.0,0 STARLINK-5239,1 54183U 22141AC  24168.69101442  .00002769  00000-0  19193-3 0  9999,2 54183  53.2176 316.4010 0001345  90.9271 269.1875 15.08846943 90604,6917.859,95.437,540.655,538.794,0.0
54183.0,STARLINK-5239,PAYLOAD,2024-06-17 16:25:51,15.08835298,0.0001282,53.2176,311.9431,90.9654,269.1485,-4.6448e-05,-1.027e-05,0.0,0 STARLINK-5239,1 54183U 22141AC  24169.68462140 -.00001027  00000-0 -46448-4 0  9996,2 54183  53.2176 311.9431 0001282  90.9654 269.1485 15.08835298 90750,6917.895,95.438,540.647,538.873,0.0
54183.0,STARLINK-5239,PAYLOAD,2024-06-18 13:05:52,15.08839264,0.0001239,53.2192,308.0786,96.2936,263.8197,9.1256e-05,1.165e-05,0.0,0 STARLINK-5239,1 54183U 22141AC  24170.54574188  .00001165  00000-0  91256-4 0  9997,2 54183  53.2192 308.0786 0001239  96.2936 263.8197 15.08839264 91111,6917.883,95.438,540.605,538.891,0.0
54183.0,STARLINK-5239,PAYLOAD,2024-06-18 14:41:15,15.08841304,0.0001257,53.2187,307.7799,91.9539,268.1597,0.00010279,1.348e-05,0.0,0 STARLINK-5239,1 54183U 22141AC  24170.61198065  .00001348  00000-0  10279-3 0  9999,2 54183  53.2187 307.7799 0001257  91.9539 268.1597 15.08841304 90890,6917.876,95.437,540.611,538.872,0.0
54183.0,STARLINK-5239,PAYLOAD,2024-06-18 16:16:38,15.08844378,0.0001271,53.2182,307.4864,99.639,260.4746,0.00018291,2.625e-05,0.0,0 STARLINK-5239,1 54183U 22141AC  24170.67821927  .00002625  00000-0  18291-3 0  9996,2 54183  53.2182 307.4864 0001271  99.6390 260.4746 15.08844378 90908,6917.867,95.437,540.611,538.853,0.0
54183.0,STARLINK-5239,PAYLOAD,2024-06-19 14:32:02,15.08835233,0.0001305,53.2184,303.324,102.8949,257.2189,8.6765e-05,1.093e-05,0.0,0 STARLINK-5239,1 54183U 22141AC  24171.60558580  .00001093  00000-0  86765-4 0  9992,2 54183  53.2184 303.3240 0001305 102.8949 257.2189 15.08835233 91049,6917.895,95.438,540.663,538.857,0.0
54183.0,STARLINK-5239,PAYLOAD,2024-06-19 16:07:25,15.08841539,0.0001189,53.2173,303.0247,99.8936,260.219,0.00017268,2.462e-05,0.0,0 STARLINK-5239,1 54183U 22141AC  24171.67182274  .00002462  00000-0  17268-3 0  9994,2 54183  53.2173 303.0247 0001189  99.8936 260.2190 15.08841539 91280,6917.876,95.437,540.563,538.918,0.0
54183.0,STARLINK-5239,PAYLOAD,2024-06-20 14:22:49,15.08842406,0.000115,53.2172,298.8621,105.886,254.2259,2.1497e-05,5.4e-07,0.0,0 STARLINK-5239,1 54183U 22141AC  24172.59918218  .00000054  00000-0  21497-4 0  9996,2 54183  53.2172 298.8621 0001150 105.8860 254.2259 15.08842406 91191,6917.873,95.437,540.534,538.942,0.0
54183.0,STARLINK-5239,PAYLOAD,2024-06-20 17:33:35,15.0884698,0.0001096,53.217,298.267,105.4544,254.657,9.454e-05,1.217e-05,0.0,0 STARLINK-5239,1 54183U 22141AC  24172.73165963  .00001217  00000-0  94540-4 0  9994,2 54183  53.2170 298.2670 0001096 105.4544 254.6570 15.08846980 91440,6917.859,95.437,540.482,538.966,0.0
54183.0,STARLINK-5239,PAYLOAD,2024-06-21 01:30:31,15.08840583,0.000108,53.2172,296.778,87.0689,273.0426,-2.4126e-05,-6.72e-06,0.0,0 STARLINK-5239,1 54183U 22141AC  24173.06286260 -.00000672  00000-0 -24126-4 0  9994,2 54183  53.2172 296.7780 0001080  87.0689 273.0426 15.08840583 91498,6917.879,95.438,540.491,538.996,0.0
54183.0,STARLINK-5239,PAYLOAD,2024-06-21 14:13:36,15.08839332,0.0001209,53.2174,294.4014,95.0681,265.0449,5.6186e-05,6.06e-06,0.0,0 STARLINK-5239,1 54183U 22141AC  24173.59278549  .00000606  00000-0  56186-4 0  9999,2 54183  53.2174 294.4014 0001209  95.0681 265.0449 15.08839332 91349,6917.882,95.438,540.584,538.911,0.0
54183.0,STARLINK-5239,PAYLOAD,2024-06-22 12:29:00,15.08842274,0.0001189,53.218,290.2387,105.3035,254.8088,7.8056e-05,9.55e-06,0.0,0 STARLINK-5239,1 54183U 22141AC  24174.52014647  .00000955  00000-0  78056-4 0  9997,2 54183  53.2180 290.2387 0001189 105.3035 254.8088 15.08842274 91713,6917.873,95.437,540.561,538.916,0.0
54183.0,STARLINK-5239,PAYLOAD,2024-06-22 14:04:23,15.08841716,0.0001189,53.2184,289.9417,103.7813,256.3311,7.906e-05,9.71e-06,0.0,0 STARLINK-5239,1 54183U 22141AC  24174.58638680  .00000971  00000-0  79060-4 0  9996,2 54183  53.2184 289.9417 0001189 103.7813 256.3311 15.08841716 91493,6917.875,95.437,540.563,538.918,0.0
54183.0,STARLINK-5239,PAYLOAD,2024-06-23 13:55:10,15.0884343,0.0001222,53.2185,285.4814,91.6604,268.4528,0.00011016,1.466e-05,0.0,0 STARLINK-5239,1 54183U 22141AC  24175.57998519  .00001466  00000-0  11016-3 0  9992,2 54183  53.2185 285.4814 0001222  91.6604 268.4528 15.08843430 91643,6917.87,95.437,540.58,538.89,0.0
54183.0,STARLINK-5239,PAYLOAD,2024-06-24 13:45:57,15.0884695,0.0001239,53.2187,281.0211,91.1548,268.9587,0.00012786,1.748e-05,0.0,0 STARLINK-5239,1 54183U 22141AC  24176.57358105  .00001748  00000-0  12786-3 0  9992,2 54183  53.2187 281.0211 0001239  91.1548 268.9587 15.08846950 91794,6917.859,95.437,540.581,538.867,0.0
54183.0,STARLINK-5239,PAYLOAD,2024-06-25 12:01:22,15.08836935,0.0001339,53.219,276.8582,99.617,260.4973,1.2226e-05,-9.3e-07,0.0,0 STARLINK-5239,1 54183U 22141AC  24177.50094955 -.00000093  00000-0  12226-4 0  9999,2 54183  53.2190 276.8582 0001339  99.6170 260.4973 15.08836935 92166,6917.89,95.438,540.681,538.828,0.0
54183.0,STARLINK-5239,PAYLOAD,2024-06-25 13:36:45,15.08839489,0.0001316,53.2185,276.5598,100.1754,259.9386,3.6578e-06,-2.3e-06,0.0,0 STARLINK-5239,1 54183U 22141AC  24177.56718773 -.00000230  00000-0  36578-5 0  9996,2 54183  53.2185 276.5598 0001316 100.1754 259.9386 15.08839489 91948,6917.882,95.438,540.657,538.837,0.0
54183.0,STARLINK-5239,PAYLOAD,2024-06-26 11:52:08,15.0884663,0.0001301,53.218,272.3932,106.6704,253.4431,2.463e-05,1.04e-06,0.0,0 STARLINK-5239,1 54183U 22141AC  24178.49454175  .00000104  00000-0  24630-4 0  9996,2 54183  53.2180 272.3932 0001301 106.6704 253.4431 15.08846630 92317,6917.86,95.437,540.625,538.825,0.0
54183.0,STARLINK-5239,PAYLOAD,2024-06-27 13:18:19,15.08840593,0.0001118,53.2166,267.6401,85.2802,274.8318,5.407e-05,5.73e-06,0.0,0 STARLINK-5239,1 54183U 22141AC  24179.55438837  .00000573  00000-0  54070-4 0  9992,2 54183  53.2166 267.6401 0001118  85.2802 274.8318 15.08840593 92476,6917.879,95.438,540.517,538.97,0.0
54183.0,STARLINK-5239,PAYLOAD,2024-06-28 13:09:05,15.08836171,0.0001136,53.2163,263.1759,91.186,268.9262,6.0711e-05,6.78e-06,0.0,0 STARLINK-5239,1 54183U 22141AC  24180.54798289  .00000678  00000-0  60711-4 0  9998,2 54183  53.2163 263.1759 0001136  91.1860 268.9262 15.08836171 92390,6917.892,95.438,540.543,538.971,0.0
54183.0,STARLINK-5239,PAYLOAD,2024-06-29 05:02:56,15.08853103,0.0001723,53.2149,260.2022,142.9747,217.1365,-0.00053543,-8.802e-05,0.0,0 STARLINK-5239,1 54183U 22141AC  24181.21037149 -.00008802  00000-0 -53543-3 0  9997,2 54183  53.2149 260.2022 0001723 142.9747 217.1365 15.08853103 92727,6917.84,95.437,540.897,538.513,0.0
54183.0,STARLINK-5239,PAYLOAD,2024-06-29 12:59:52,15.08845545,0.0001132,53.2155,258.717,100.7828,259.3291,-2.6048e-05,-7.02e-06,0.0,0 STARLINK-5239,1 54183U 22141AC  24181.54157422 -.00000702  00000-0 -26048-4 0  9992,2 54183  53.2155 258.7170 0001132 100.7828 259.3291 15.08845545 92543,6917.863,95.437,540.512,538.945,0.0
54183.0,STARLINK-5239,PAYLOAD,2024-06-30 04:53:44,15.08818358,0.0001368,53.215,255.7434,94.5061,265.6087,-7.186e-06,-4.02e-06,0.0,0 STARLINK-5239,1 54183U 22141AC  24182.20399273 -.00000402  00000-0 -71860-5 0  9998,2 54183  53.2150 255.7434 0001368  94.5061 265.6087 15.08818358 92879,6917.947,95.439,540.758,538.865,0.0
54183.0,STARLINK-5239,PAYLOAD,2024-06-30 11:15:17,15.08817749,0.0001401,53.2157,254.5552,89.0126,271.1026,-4.6436e-06,-3.62e-06,0.0,0 STARLINK-5239,1 54183U 22141AC  24182.46895735 -.00000362  00000-0 -46436-5 0  9996,2 54183  53.2157 254.5552 0001401  89.0126 271.1026 15.08817749 92680,6917.948,95.439,540.783,538.844,0.0
54183.0,STARLINK-5239,PAYLOAD,2024-06-30 22:22:59,15.08830192,0.0001546,53.2158,252.4722,92.4472,267.6697,0.00016626,2.358e-05,0.0,0 STARLINK-5239,1 54183U 22141AC  24182.93263638  .00002358  00000-0  16626-3 0  9990,2 54183  53.2158 252.4722 0001546  92.4472 267.6697 15.08830192 92758,6917.91,95.438,540.845,538.706,0.0
54183.0,STARLINK-5239,PAYLOAD,2024-07-01 04:44:32,15.08838073,0.0001524,53.2156,251.2823,93.197,266.9196,0.00023507,3.455e-05,0.0,0 STARLINK-5239,1 54183U 22141AC  24183.19759418  .00003455  00000-0  23507-3 0  9990,2 54183  53.2156 251.2823 0001524  93.1970 266.9196 15.08838073 93025,6917.886,95.438,540.806,538.697,0.0
54183.0,STARLINK-5239,PAYLOAD,2024-07-01 11:06:04,15.08845111,0.0001586,53.2155,250.0932,91.248,268.8694,0.00045939,7.032e-05,0.0,0 STARLINK-5239,1 54183U 22141AC  24183.46255462  .00007032  00000-0  45939-3 0  9998,2 54183  53.2155 250.0932 0001586  91.2480 268.8694 15.08845111 92838,6917.865,95.437,540.827,538.633,0.0
